{"fetched_at":"2026-03-29T16:36:15Z","count":15609,"tles":[{"name":"STARLINK-33861","line1":"1 63678U 25085Q   26087.82303404  .00022396  00000+0  82047-3 0  9992","line2":"2 63678  43.0015 283.0803 0000893 258.7398 101.3353 15.27597510 51780","category":"Starlink"}]}